NORAD_CAT_ID,OBJECT_NAME,OBJECT_TYPE,EPOCH,MEAN_MOTION,ECCENTRICITY,INCLINATION,RA_OF_ASC_NODE,ARG_OF_PERICENTER,MEAN_ANOMALY,BSTAR,MEAN_MOTION_DOT,MEAN_MOTION_DDOT,TLE_LINE0,TLE_LINE1,TLE_LINE2,SEMIMAJOR_AXIS,PERIOD,APOGEE,PERIGEE,DECAYED
53163.0,STARLINK-4104,PAYLOAD,2022-07-31 22:00:00,15.73199492,0.000138,53.2182,335.9141,36.4663,255.7148,6.3427e-05,8.290000000000001e-05,0.0,0 STARLINK-4104,1 53163U 22083AH  22212.91667824  .00008290  00000-0  63427-4 0  9990,2 53163  53.2182 335.9141 0001380  36.4663 255.7148 15.73199492  1303,6727.897,91.533,350.69,348.833,0.0
53163.0,STARLINK-4104,PAYLOAD,2022-08-01 14:00:01,15.73218345,0.0001476,53.2182,332.6154,42.6233,67.4417,-0.0004565,-0.00064251,0.0,0 STARLINK-4104,1 53163U 22083AH  22213.58334491 -.00064251  00000-0 -45650-3 0  9993,2 53163  53.2182 332.6154 0001476  42.6233  67.4417 15.73218345  3015,6727.843000000003,91.532,350.701,348.715,0.0
53163.0,STARLINK-4104,PAYLOAD,2022-08-01 22:00:00,15.73207505,0.0001592,53.2181,330.9661,42.6555,156.3383,2.6785000000000003e-06,-2.44e-06,0.0,0 STARLINK-4104,1 53163U 22083AH  22213.91667824 -.00000244  00000-0  26785-5 0  9990,2 53163  53.2181 330.9661 0001592  42.6555 156.3383 15.73207505  3065,6727.874,91.533,350.81,348.668,0.0
53163.0,STARLINK-4104,PAYLOAD,2022-08-02 14:00:01,15.73190024,0.0001905,53.2185,327.6672,49.2918,327.5861,-0.00014676,-0.00021158,0.0,0 STARLINK-4104,1 53163U 22083AH  22214.58334491 -.00021158  00000-0 -14676-3 0  9997,2 53163  53.2185 327.6672 0001905  49.2918 327.5861 15.73190024  1303,6727.924,91.534,351.07,348.50699999999995,0.0
53163.0,STARLINK-4104,PAYLOAD,2022-08-03 04:00:00,15.73190361,0.0001721999999999,53.218,324.7791,51.0036,31.4958,0.0004263999999999,0.00059624,0.0,0 STARLINK-4104,1 53163U 22083AH  22215.16667824  .00059624  00000-0  42640-3 0  9990,2 53163  53.2180 324.7791 0001722  51.0036  31.4958 15.73190361  3255,6727.9230000000025,91.534,350.946,348.629,0.0
53163.0,STARLINK-4104,PAYLOAD,2022-08-03 12:00:00,15.73229355,0.0001769,53.218,323.131,45.1942,126.2491,-0.00053015,-0.00074465,0.0,0 STARLINK-4104,1 53163U 22083AH  22215.50001157 -.00074465  00000-0 -53015-3 0  9999,2 53163  53.2180 323.1310 0001769  45.1942 126.2491 15.73229355  3314,6727.811,91.531,350.867,348.486,0.0
53163.0,STARLINK-4104,PAYLOAD,2022-08-03 14:00:01,15.73194801,0.0001824,53.2179,322.7191,43.8687,239.8195,-0.00014933,-0.00021521,0.0,0 STARLINK-4104,1 53163U 22083AH  22215.58334491 -.00021521  00000-0 -14933-3 0  9998,2 53163  53.2179 322.7191 0001824  43.8687 239.8195 15.73194801  1303,6727.91,91.533,351.00199999999984,348.548,0.0
53163.0,STARLINK-4104,PAYLOAD,2022-08-03 20:00:01,15.73191179,0.0001778,53.2177,321.4821,37.6727,222.7049,0.00026241,0.00036353,0.0,0 STARLINK-4104,1 53163U 22083AH  22215.83334491  .00036353  00000-0  26241-3 0  9998,2 53163  53.2177 321.4821 0001778  37.6727 222.7049 15.73191179  3363,6727.92,91.534,350.982,348.589,0.0
53163.0,STARLINK-4104,PAYLOAD,2022-08-03 22:00:01,15.73213932,0.0001746,53.2178,321.0691,38.713,333.956,-1.1174e-05,-2.19e-05,0.0,0 STARLINK-4104,1 53163U 22083AH  22215.91668981 -.00002190  00000-0 -11174-4 0  9995,2 53163  53.2178 321.0691 0001746  38.7130 333.9560 15.73213932  1307,6727.855,91.532,350.895,348.546,0.0
53163.0,STARLINK-4104,PAYLOAD,2022-08-04 06:00:00,15.73216994,0.000158,53.2182,319.418,41.8819,59.6601,-0.0002739,-0.00038912,0.0,0 STARLINK-4104,1 53163U 22083AH  22216.25001157 -.00038912  00000-0 -27390-3 0  9996,2 53163  53.2182 319.4180 0001580  41.8819  59.6601 15.73216994  3436,6727.847,91.532,350.775,348.649,0.0
53163.0,STARLINK-4104,PAYLOAD,2022-08-04 14:00:01,15.73179432,0.0001809,53.2182,317.7706,34.1517,156.3307,0.00014488,0.00019743,0.0,0 STARLINK-4104,1 53163U 22083AH  22216.58334491  .00019743  00000-0  14488-3 0  9995,2 53163  53.2182 317.7706 0001809  34.1517 156.3307 15.73179432  1302,6727.954000000002,91.534,351.036,348.602,0.0
53163.0,STARLINK-4104,PAYLOAD,2022-08-04 22:00:00,15.73218845,0.0001783,53.2179,316.1204,33.5439,245.8459,-6.6161e-05,-9.903e-05,0.0,0 STARLINK-4104,1 53163U 22083AH  22216.91667824 -.00009903  00000-0 -66161-4 0  9996,2 53163  53.2179 316.1204 0001783  33.5439 245.8459 15.73218845  1305,6727.840999999999,91.532,350.906,348.50699999999995,0.0
53163.0,STARLINK-4104,PAYLOAD,2022-08-05 12:00:00,15.73199008,0.0001953,53.2178,313.2342,39.0104,306.0559,-1.2894e-05,-2.43e-05,0.0,0 STARLINK-4104,1 53163U 22083AH  22217.50001157 -.00002430  00000-0 -12894-4 0  9995,2 53163  53.2178 313.2342 0001953  39.0104 306.0559 15.73199008  3621,6727.898,91.533,351.077,348.449,0.0
53163.0,STARLINK-4104,PAYLOAD,2022-08-05 14:00:01,15.73188827,0.000202,53.2178,312.8223,38.2374,59.1276,0.00019118,0.00026282,0.0,0 STARLINK-4104,1 53163U 22083AH  22217.58335648  .00026282  00000-0  19118-3 0  9992,2 53163  53.2178 312.8223 0002020  38.2374  59.1276 15.73188827  1302,6727.927,91.534,351.151,348.43300000000005,0.0
53163.0,STARLINK-4104,PAYLOAD,2022-08-05 22:00:00,15.73242631,0.0001911999999999,53.2178,311.1719,34.6579,151.5606,-0.0007693999999999,-0.00107437,0.0,0 STARLINK-4104,1 53163U 22083AH  22217.91667824 -.00107437  00000-0 -76940-3 0  9993,2 53163  53.2178 311.1719 0001912  34.6579 151.5606 15.73242631  1308,6727.774,91.531,350.925,348.352,0.0
53163.0,STARLINK-4104,PAYLOAD,2022-08-06 04:00:03,15.73062804,0.0001985,53.2174,309.9309,47.57100000000001,115.4253,0.0016055,0.00229618,0.0,0 STARLINK-4104,1 53163U 22083AH  22218.16670139  .00229618  00000-0  16055-2 0  9998,2 53163  53.2174 309.9309 0001985  47.5710 115.4253 15.73062804  3732,6728.286,91.541,351.487,348.816,0.0
53163.0,STARLINK-4104,PAYLOAD,2022-08-06 14:00:01,15.73197877,0.0002065999999999,53.2183,307.8737,32.8513,331.2228,0.00023205,0.00032069,0.0,0 STARLINK-4104,1 53163U 22083AH  22218.58334491  .00032069  00000-0  23205-3 0  9990,2 53163  53.2183 307.8737 0002066  32.8513 331.2228 15.73197877  1303,6727.901,91.533,351.156,348.376,0.0
53163.0,STARLINK-4104,PAYLOAD,2022-08-06 20:00:01,15.73257763,0.0002020999999999,53.218,306.6362,27.8057,312.9591,-0.00057408,-0.00080627,0.0,0 STARLINK-4104,1 53163U 22083AH  22218.83334491 -.00080627  00000-0 -57408-3 0  9995,2 53163  53.2180 306.6362 0002021  27.8057 312.9591 15.73257763  3839,6727.73,91.53,350.955,348.236,0.0
53163.0,STARLINK-4104,PAYLOAD,2022-08-06 22:00:00,15.73259963,0.0001935,53.2181,306.2232,28.5548,64.4521,-0.00076484,-0.0010689,0.0,0 STARLINK-4104,1 53163U 22083AH  22218.91667824 -.00106890  00000-0 -76484-3 0  9999,2 53163  53.2181 306.2232 0001935  28.5548  64.4521 15.73259963  1304,6727.724,91.53,350.891,348.287,0.0
53163.0,STARLINK-4104,PAYLOAD,2022-08-07 05:13:48,15.73218531,0.0002355999999999,53.2187,304.7319,28.8051,331.3099,8.900299999999999e-05,0.00011898,0.0,0 STARLINK-4104,1 53163U 22083AH  22219.21792356  .00011898  00000-0  89003-4 0  9995,2 53163  53.2187 304.7319 0002356  28.8051 331.3099 15.73218531  3897,6727.842,91.532,351.292,348.122,0.0
53163.0,STARLINK-4104,PAYLOAD,2022-08-07 12:00:00,15.73196437,0.0001955,53.2179,303.3375,22.0925,136.5542,-0.00048424,-0.00068029,0.0,0 STARLINK-4104,1 53163U 22083AH  22219.50001157 -.00068029  00000-0 -48424-3 0  9990,2 53163  53.2179 303.3375 0001955  22.0925 136.5542 15.73196437  3949,6727.905,91.533,351.086,348.455,0.0
53163.0,STARLINK-4104,PAYLOAD,2022-08-07 12:51:12,15.73202637,0.0001789,53.2187,303.1577,36.0814,324.0327,4.671e-05,5.94e-05,0.0,0 STARLINK-4104,1 53163U 22083AH  22219.53556399  .00005940  00000-0  46710-4 0  9994,2 53163  53.2187 303.1577 0001789  36.0814 324.0327 15.73202637  3324,6727.888000000001,91.533,350.956,348.5490000000001,0.0
53163.0,STARLINK-4104,PAYLOAD,2022-08-07 20:00:01,15.73190834,0.0001965,53.2178,301.6878,18.2979,229.2517,8.0292e-05,0.00010658,0.0,0 STARLINK-4104,1 53163U 22083AH  22219.83334491  .00010658  00000-0  80292-4 0  9999,2 53163  53.2178 301.6878 0001965  18.2979 229.2517 15.73190834  3996,6727.920999999999,91.534,351.108,348.464,0.0
53163.0,STARLINK-4104,PAYLOAD,2022-08-07 22:00:00,15.73195961,0.0001894,53.218,301.275,19.3163,340.4608,8.3789e-05,0.00011152,0.0,0 STARLINK-4104,1 53163U 22083AH  22219.91667824  .00011152  00000-0  83789-4 0  9991,2 53163  53.2180 301.2750 0001894  19.3163 340.4608 15.73195961  1308,6727.906999999997,91.533,351.046,348.497,0.0
53163.0,STARLINK-4104,PAYLOAD,2022-08-08 14:00:01,15.73270843,0.0002221,53.2185,297.9772,22.052,155.7059,5.123e-05,6.596e-05,0.0,0 STARLINK-4104,1 53163U 22083AH  22220.58335648  .00006596  00000-0  51230-4 0  9994,2 53163  53.2185 297.9772 0002221  22.0520 155.7059 15.73270843  4113,6727.693,91.529,351.052,348.064,0.0
53163.0,STARLINK-4104,PAYLOAD,2022-08-08 22:00:00,15.73300866,0.0002149,53.2182,296.3263,23.7373,242.9898,-0.00074239,-0.00103992,0.0,0 STARLINK-4104,1 53163U 22083AH  22220.91667824 -.00103992  00000-0 -74239-3 0  9998,2 53163  53.2182 296.3263 0002149  23.7373 242.9898 15.73300866  1308,6727.608,91.527,350.918,348.027,0.0
53163.0,STARLINK-4104,PAYLOAD,2022-08-09 04:00:00,15.73227032,0.000207,53.2181,295.0883,26.99,216.496,-0.00026298,-0.00037411,0.0,0 STARLINK-4104,1 53163U 22083AH  22221.16667824 -.00037411  00000-0 -26298-3 0  9990,2 53163  53.2181 295.0883 0002070  26.9900 216.4960 15.73227032  4206,6727.818,91.532,351.076,348.29,0.0
53163.0,STARLINK-4104,PAYLOAD,2022-08-09 14:00:01,15.73188791,0.0002387,53.2179,293.0292,25.219,59.4252,-0.00068298,-0.00095364,0.0,0 STARLINK-4104,1 53163U 22083AH  22221.58334491 -.00095364  00000-0 -68298-3 0  9994,2 53163  53.2179 293.0292 0002387  25.2190  59.4252 15.73188791  4273,6727.927,91.534,351.398,348.186,0.0
53163.0,STARLINK-4104,PAYLOAD,2022-08-09 22:00:00,15.73101354,0.0002323,53.2178,291.3782,27.172,146.3551,-7.199e-05,-0.0001066999999999,0.0,0 STARLINK-4104,1 53163U 22083AH  22221.91667824 -.00010670  00000-0 -71990-4 0  9991,2 53163  53.2178 291.3782 0002323  27.1720 146.3551 15.73101354  1306,6728.176,91.539,351.60400000000016,348.478,0.0
